[{"color":"BLUE","year":"Y2021","vehicleTypes":"SEDAN","maxLoad":1400,"isReserved":false,"maxSpeed":"220","fuelTankCapacity":60,"fuelConsumption":6.5,"pricePerDay":"P300","numberOfSeats":5,"fuelType":"PETROL","engine":2.5,"model":"TOYOTA_CAMRY","vin":"4T1BF1FK5CU123456","id":"1","gearBox":"AUTOMATIC","brand":"TOYOTA","mileage":15000},{"color":"RED","year":"Y2022","vehicleTypes":"SUV","maxLoad":1800,"isReserved":false,"maxSpeed":"240","fuelTankCapacity":70,"fuelConsumption":9,"pricePerDay":"P400","numberOfSeats":7,"fuelType":"DIESEL","engine":3.5,"model":"FORD_MUSTANG","vin":"1FM5K8HCXNG123456","id":"2","gearBox":"AUTOMATIC","brand":"FORD","mileage":12000},{"color":"BLACK","year":"Y2023","vehicleTypes":"MOTORCYCLE","maxLoad":200,"isReserved":false,"maxSpeed":"250","fuelTankCapacity":14,"fuelConsumption":4.5,"pricePerDay":"P150","numberOfSeats":1,"fuelType":"PETROL","engine":0.8,"model":"YAMAHA_YZF","vin":"JH2SC5951D4301234","id":"3","gearBox":"MANUAL","brand":"YAMAHA","mileage":5000},{"color":"GRAY","year":"Y2022","vehicleTypes":"CAMPER","maxLoad":3500,"isReserved":false,"maxSpeed":"110","fuelTankCapacity":90,"fuelConsumption":13,"pricePerDay":"P400","numberOfSeats":4,"fuelType":"DIESEL","engine":3.2,"model":"WINNEBAGO_MINNIE","vin":"1B9KH10302A123456","id":"4","gearBox":"AUTOMATIC","brand":"WINNEBAGO","mileage":8000},{"color":"BLACK","year":"Y2023","vehicleTypes":"MOTORCYCLE","maxLoad":300,"isReserved":false,"maxSpeed":"180","fuelTankCapacity":15,"fuelConsumption":5,"pricePerDay":"P200","numberOfSeats":2,"fuelType":"PETROL","engine":1.2,"model":"HARLEY_DAVIDSON_SPORTSTER","vin":"1HD1LC315DC123456","id":"5","gearBox":"MANUAL","brand":"HARLEY_DAVIDSON","mileage":5000},{"color":"WHITE","year":"Y2022","vehicleTypes":"CAMPER","maxLoad":3000,"isReserved":false,"maxSpeed":"120","fuelTankCapacity":100,"fuelConsumption":12,"pricePerDay":"P400","numberOfSeats":4,"fuelType":"DIESEL","engine":3.5,"model":"WINNEBAGO_MICRO_MINNIE","vin":"1WUBBEG24JA123456","id":"6","gearBox":"AUTOMATIC","brand":"WINNEBAGO","mileage":10000},{"color":"GRAY","year":"Y2021","vehicleTypes":"SEDAN","maxLoad":1600,"isReserved":false,"maxSpeed":"250","fuelTankCapacity":65,"fuelConsumption":7,"pricePerDay":"P350","numberOfSeats":5,"fuelType":"PETROL","engine":2,"model":"MERCEDES_BENZ_E_CLASS","vin":"WDDZF4KB4JA123456","id":"7","gearBox":"AUTOMATIC","brand":"MERCEDES_BENZ","mileage":8000},{"color":"BLACK","year":"Y2020","vehicleTypes":"SUV","maxLoad":1800,"isReserved":false,"maxSpeed":"240","fuelTankCapacity":70,"fuelConsumption":9,"pricePerDay":"P400","numberOfSeats":7,"fuelType":"DIESEL","engine":3.5,"model":"BMW_X5","vin":"5UXJU4C50L9B12345","id":"8","gearBox":"AUTOMATIC","brand":"BMW","mileage":12000},{"color":"RED","year":"Y2023","vehicleTypes":"COUPE","maxLoad":1200,"isReserved":false,"maxSpeed":"280","fuelTankCapacity":65,"fuelConsumption":10,"pricePerDay":"P400","numberOfSeats":2,"fuelType":"PETROL","engine":3.8,"model":"PORSCHE_911","vin":"WP0AA2996SS123456","id":"9","gearBox":"AUTOMATIC","brand":"PORSCHE","mileage":5000},{"color":"BLUE","year":"Y2021","vehicleTypes":"SEDAN","maxLoad":1500,"isReserved":false,"maxSpeed":"260","fuelTankCapacity":60,"fuelConsumption":7,"pricePerDay":"P350","numberOfSeats":5,"fuelType":"PETROL","engine":2,"model":"AUDI_A6","vin":"WAUZZZ4G9AN123456","id":"11","gearBox":"AUTOMATIC","brand":"AUDI","mileage":9000},{"color":"GRAY","year":"Y2022","vehicleTypes":"CAMPER","maxLoad":3500,"isReserved":false,"maxSpeed":"130","fuelTankCapacity":95,"fuelConsumption":14,"pricePerDay":"P400","numberOfSeats":6,"fuelType":"PETROL","engine":3.6,"model":"WINNEBAGO_REVEL","vin":"2C4RC1FG5KR123456","id":"12","gearBox":"AUTOMATIC","brand":"WINNEBAGO","mileage":8000},{"color":"GREEN","year":"Y2023","vehicleTypes":"SUV","maxLoad":2000,"isReserved":false,"maxSpeed":"230","fuelTankCapacity":80,"fuelConsumption":10,"pricePerDay":"P400","numberOfSeats":5,"fuelType":"DIESEL","engine":3,"model":"LAND_ROVER_RANGE_ROVER","vin":"SALGR2SE2LA123456","id":"13","gearBox":"AUTOMATIC","brand":"LAND_ROVER","mileage":6000},{"color":"WHITE","year":"Y2020","vehicleTypes":"HATCHBACK","maxLoad":1200,"isReserved":false,"maxSpeed":"220","fuelTankCapacity":50,"fuelConsumption":6,"pricePerDay":"P300","numberOfSeats":5,"fuelType":"PETROL","engine":1.6,"model":"VOLKSWAGEN_GOLF","vin":"WVWZZZAUZLW123456","id":"14","gearBox":"AUTOMATIC","brand":"VOLKSWAGEN","mileage":11000},{"color":"RED","year":"Y2024","vehicleTypes":"CONVERTIBLE","maxLoad":1000,"isReserved":false,"maxSpeed":"260","fuelTankCapacity":55,"fuelConsumption":9.5,"pricePerDay":"P350","numberOfSeats":2,"fuelType":"PETROL","engine":3.2,"model":"BMW_Z4","vin":"WBABW53455P123456","id":"15","gearBox":"AUTOMATIC","brand":"BMW","mileage":7000},{"color":"WHITE","year":"Y2022","vehicleTypes":"SEDAN","maxLoad":1600,"isReserved":false,"maxSpeed":"240","fuelTankCapacity":65,"fuelConsumption":7.5,"pricePerDay":"P350","numberOfSeats":5,"fuelType":"PETROL","engine":2,"model":"MERCEDES_BENZ_C_CLASS","vin":"WDDZF4KB1JA123456","id":"16","gearBox":"AUTOMATIC","brand":"MERCEDES_BENZ","mileage":8500},{"color":"GREEN","year":"Y2023","vehicleTypes":"MOTORCYCLE","maxLoad":250,"isReserved":false,"maxSpeed":"270","fuelTankCapacity":16,"fuelConsumption":6,"pricePerDay":"P200","numberOfSeats":2,"fuelType":"PETROL","engine":1.1,"model":"KAWASAKI_NINJA","vin":"JKAEXMJ13RDA12345","id":"17","gearBox":"MANUAL","brand":"KAWASAKI","mileage":4000},{"color":"YELLOW","year":"Y2024","vehicleTypes":"COUPE","maxLoad":1100,"isReserved":false,"maxSpeed":"320","fuelTankCapacity":70,"fuelConsumption":12,"pricePerDay":"P400","numberOfSeats":2,"fuelType":"PETROL","engine":3.9,"model":"FERRARI_488","vin":"ZFF79ALA9N1234567","id":"18","gearBox":"AUTOMATIC","brand":"FERRARI","mileage":2000},{"color":"GRAY","year":"Y2023","vehicleTypes":"SEDAN","maxLoad":1500,"isReserved":false,"maxSpeed":"260","fuelTankCapacity":0,"fuelConsumption":0,"pricePerDay":"P400","numberOfSeats":5,"fuelType":"ELECTRIC","engine":0,"model":"TESLA_MODEL_S","vin":"5YJSA1H11EFP12345","id":"19","gearBox":"AUTOMATIC","brand":"TESLA","mileage":5000},{"color":"BLUE","year":"Y2022","vehicleTypes":"SUV","maxLoad":1600,"isReserved":false,"maxSpeed":"220","fuelTankCapacity":65,"fuelConsumption":8,"pricePerDay":"P350","numberOfSeats":5,"fuelType":"PETROL","engine":2.5,"model":"TOYOTA_CAMRY","vin":"2T3WFREV1MW123456","id":"20","gearBox":"AUTOMATIC","brand":"TOYOTA","mileage":9000},{"color":"GRAY","year":"Y2023","vehicleTypes":"MINIVAN","maxLoad":1200,"isReserved":false,"maxSpeed":"200","fuelTankCapacity":75,"fuelConsumption":9,"pricePerDay":"P300","numberOfSeats":7,"fuelType":"PETROL","engine":3.5,"model":"HONDA_CLARITY","vin":"5FNRL6H7P12345678","id":"21","gearBox":"AUTOMATIC","brand":"HONDA","mileage":8500},{"color":"BLACK","year":"Y2021","vehicleTypes":"SEDAN","maxLoad":1400,"isReserved":false,"maxSpeed":"250","fuelTankCapacity":60,"fuelConsumption":7.5,"pricePerDay":"P350","numberOfSeats":5,"fuelType":"PETROL","engine":2,"model":"BMW_3_SERIES","vin":"WBA5R1C06MA123456","id":"22","gearBox":"AUTOMATIC","brand":"BMW","mileage":9500},{"color":"BLUE","year":"Y2020","vehicleTypes":"HATCHBACK","maxLoad":1000,"isReserved":false,"maxSpeed":"200","fuelTankCapacity":45,"fuelConsumption":6.5,"pricePerDay":"P250","numberOfSeats":5,"fuelType":"PETROL","engine":1.5,"model":"FORD_FIESTA","vin":"3FADP4BJ7LM123456","id":"23","gearBox":"AUTOMATIC","brand":"FORD","mileage":11500},{"color":"GRAY","year":"Y2022","vehicleTypes":"MOTORCYCLE","maxLoad":180,"isReserved":false,"maxSpeed":"250","fuelTankCapacity":15,"fuelConsumption":5,"pricePerDay":"P200","numberOfSeats":2,"fuelType":"PETROL","engine":0.8,"model":"YAMAHA_MT","vin":"JYARN48E77A123456","id":"24","gearBox":"MANUAL","brand":"YAMAHA","mileage":3000},{"color":"GRAY","year":"Y2023","vehicleTypes":"SEDAN","maxLoad":1600,"isReserved":false,"maxSpeed":"240","fuelTankCapacity":65,"fuelConsumption":7.5,"pricePerDay":"P350","numberOfSeats":5,"fuelType":"PETROL","engine":2,"model":"MERCEDES_BENZ_E_CLASS","vin":"WDDZF4KB1LA123456","id":"25","gearBox":"AUTOMATIC","brand":"MERCEDES_BENZ","mileage":7800},{"color":"WHITE","year":"Y2022","vehicleTypes":"SUV","maxLoad":1800,"isReserved":false,"maxSpeed":"250","fuelTankCapacity":0,"fuelConsumption":0,"pricePerDay":"P400","numberOfSeats":7,"fuelType":"ELECTRIC","engine":0,"model":"TESLA_MODEL_X","vin":"5YJXCBE26NF123456","id":"26","gearBox":"AUTOMATIC","brand":"TESLA","mileage":6000},{"color":"WHITE","year":"Y2024","vehicleTypes":"CAMPER","maxLoad":4000,"isReserved":false,"maxSpeed":"140","fuelTankCapacity":100,"fuelConsumption":15,"pricePerDay":"P400","numberOfSeats":4,"fuelType":"DIESEL","engine":3,"model":"WINNEBAGO_REVEL","vin":"3C6UR5NL4LG123456","id":"27","gearBox":"AUTOMATIC","brand":"WINNEBAGO","mileage":5000},{"color":"BLACK","year":"Y2023","vehicleTypes":"SEDAN","maxLoad":1500,"isReserved":false,"maxSpeed":"260","fuelTankCapacity":70,"fuelConsumption":9,"pricePerDay":"P400","numberOfSeats":5,"fuelType":"PETROL","engine":3,"model":"BMW_7_SERIES","vin":"WBA7E2C0XLA123456","id":"28","gearBox":"AUTOMATIC","brand":"BMW","mileage":8500},{"color":"BLUE","year":"Y2024","vehicleTypes":"COUPE","maxLoad":1200,"isReserved":false,"maxSpeed":"320","fuelTankCapacity":80,"fuelConsumption":11,"pricePerDay":"P350","numberOfSeats":2,"fuelType":"PETROL","engine":4,"model":"ASTON_MARTIN_VANTAGE","vin":"SCFEBBAL3N1234567","id":"29","gearBox":"AUTOMATIC","brand":"ASTON_MARTIN","mileage":2500},{"color":"GRAY","year":"Y2022","vehicleTypes":"SEDAN","maxLoad":1300,"isReserved":false,"maxSpeed":"220","fuelTankCapacity":60,"fuelConsumption":7,"pricePerDay":"P300","numberOfSeats":5,"fuelType":"PETROL","engine":2,"model":"HONDA_ACCORD","vin":"1HGCR2F30HA123456","id":"30","gearBox":"AUTOMATIC","brand":"HONDA","mileage":9200},{"color":"RED","year":"Y2023","vehicleTypes":"MOTORCYCLE","maxLoad":200,"isReserved":false,"maxSpeed":"280","fuelTankCapacity":18,"fuelConsumption":5.5,"pricePerDay":"P250","numberOfSeats":2,"fuelType":"PETROL","engine":1.2,"model":"DUCATI_PANIGALE","vin":"ZDM14B1W9JB123456","id":"31","gearBox":"MANUAL","brand":"DUCATI","mileage":3500},{"color":"GREEN","year":"Y2022","vehicleTypes":"SUV","maxLoad":1700,"isReserved":false,"maxSpeed":"240","fuelTankCapacity":85,"fuelConsumption":10,"pricePerDay":"P400","numberOfSeats":7,"fuelType":"DIESEL","engine":3,"model":"LAND_ROVER_DISCOVERY","vin":"SALRR2RV6JA123456","id":"33","gearBox":"AUTOMATIC","brand":"LAND_ROVER","mileage":7800},{"color":"WHITE","year":"Y2021","vehicleTypes":"SEDAN","maxLoad":1400,"isReserved":false,"maxSpeed":"260","fuelTankCapacity":65,"fuelConsumption":8,"pricePerDay":"P350","numberOfSeats":5,"fuelType":"PETROL","engine":2.5,"model":"BMW_5_SERIES","vin":"WBAJD7C52JB123456","id":"34","gearBox":"AUTOMATIC","brand":"BMW","mileage":10500},{"color":"GRAY","year":"Y2023","vehicleTypes":"CAMPER","maxLoad":3500,"isReserved":false,"maxSpeed":"130","fuelTankCapacity":95,"fuelConsumption":14,"pricePerDay":"P400","numberOfSeats":6,"fuelType":"DIESEL","engine":3.5,"model":"WINNEBAGO_MICRO_MINNIE","vin":"1UJBJ0BP0A1234567","id":"35","gearBox":"AUTOMATIC","brand":"WINNEBAGO","mileage":4200},{"color":"BLUE","year":"Y2024","vehicleTypes":"COUPE","maxLoad":1200,"isReserved":false,"maxSpeed":"330","fuelTankCapacity":80,"fuelConsumption":11.5,"pricePerDay":"P400","numberOfSeats":2,"fuelType":"PETROL","engine":4,"model":"ASTON_MARTIN_DB11","vin":"SCFRMFBW2N1234567","id":"36","gearBox":"AUTOMATIC","brand":"ASTON_MARTIN","mileage":2800},{"color":"BLACK","year":"Y2020","vehicleTypes":"SEDAN","maxLoad":1300,"isReserved":false,"maxSpeed":"230","fuelTankCapacity":60,"fuelConsumption":7.5,"pricePerDay":"P300","numberOfSeats":5,"fuelType":"PETROL","engine":2,"model":"NISSAN_ALTIMA","vin":"1N4AL3AP6LC123456","id":"37","gearBox":"AUTOMATIC","brand":"NISSAN","mileage":11500},{"color":"RED","year":"Y2021","vehicleTypes":"HATCHBACK","maxLoad":1100,"isReserved":false,"maxSpeed":"210","fuelTankCapacity":50,"fuelConsumption":6,"pricePerDay":"P250","numberOfSeats":5,"fuelType":"PETROL","engine":1.6,"model":"PEUGEOT_208","vin":"VF3B16FU0KM123456","id":"38","gearBox":"AUTOMATIC","brand":"PEUGEOT","mileage":9800},{"color":"GRAY","year":"Y2022","vehicleTypes":"SEDAN","maxLoad":1400,"isReserved":false,"maxSpeed":"240","fuelTankCapacity":65,"fuelConsumption":7.5,"pricePerDay":"P350","numberOfSeats":5,"fuelType":"PETROL","engine":2,"model":"MERCEDES_BENZ_C_CLASS","vin":"W1KWF8EB6NF123456","id":"39","gearBox":"AUTOMATIC","brand":"MERCEDES_BENZ","mileage":9200},{"color":"WHITE","year":"Y2023","vehicleTypes":"SEDAN","maxLoad":1400,"isReserved":false,"maxSpeed":"250","fuelTankCapacity":60,"fuelConsumption":7.5,"pricePerDay":"P350","numberOfSeats":5,"fuelType":"PETROL","engine":2,"model":"BMW_4_SERIES","vin":"WBA4Z1C05NJ123456","id":"40","gearBox":"AUTOMATIC","brand":"BMW","mileage":8500},{"color":"BLUE","year":"Y2024","vehicleTypes":"MOTORCYCLE","maxLoad":180,"isReserved":false,"maxSpeed":"240","fuelTankCapacity":15,"fuelConsumption":5,"pricePerDay":"P200","numberOfSeats":2,"fuelType":"PETROL","engine":0.8,"model":"SUZUKI_VITARA","vin":"JS1GR7MA4J2101234","id":"41","gearBox":"MANUAL","brand":"SUZUKI","mileage":3000},{"color":"RED","year":"Y2022","vehicleTypes":"SEDAN","maxLoad":1200,"isReserved":false,"maxSpeed":"220","fuelTankCapacity":55,"fuelConsumption":6.5,"pricePerDay":"P300","numberOfSeats":5,"fuelType":"PETROL","engine":1.8,"model":"VOLKSWAGEN_GOLF","vin":"3VWCB7BU1NM123456","id":"42","gearBox":"AUTOMATIC","brand":"VOLKSWAGEN","mileage":10500},{"color":"YELLOW","year":"Y2023","vehicleTypes":"COUPE","maxLoad":1200,"isReserved":false,"maxSpeed":"340","fuelTankCapacity":80,"fuelConsumption":12,"pricePerDay":"P400","numberOfSeats":2,"fuelType":"PETROL","engine":4,"model":"FERRARI_488","vin":"ZFF81B3A2K0241234","id":"43","gearBox":"AUTOMATIC","brand":"FERRARI","mileage":2200},{"color":"BLACK","year":"Y2023","vehicleTypes":"SEDAN","maxLoad":1500,"isReserved":false,"maxSpeed":"260","fuelTankCapacity":70,"fuelConsumption":9,"pricePerDay":"P400","numberOfSeats":5,"fuelType":"PETROL","model":"MERCEDES_BENZ_S_CLASS","vin":"WDDUG8GB9LA123456","id":"32","gearBox":"AUTOMATIC","brand":"MERCEDES_BENZ","mileage":8500},{"color":"GRAY","year":"Y2022","vehicleTypes":"SEDAN","maxLoad":1300,"isReserved":false,"maxSpeed":"240","fuelTankCapacity":65,"fuelConsumption":8,"pricePerDay":"P350","numberOfSeats":5,"fuelType":"PETROL","engine":3.5,"model":"NISSAN_MAXIMA","vin":"1N4AA6HV8LC123456","id":"44","gearBox":"AUTOMATIC","brand":"NISSAN","mileage":9500},{"color":"BLUE","year":"Y2023","vehicleTypes":"COUPE","maxLoad":1200,"isReserved":false,"maxSpeed":"320","fuelTankCapacity":80,"fuelConsumption":12,"pricePerDay":"P400","numberOfSeats":2,"fuelType":"PETROL","engine":5.2,"model":"ASTON_MARTIN_DB11","vin":"SCFSMGAW2LGN12345","id":"45","gearBox":"AUTOMATIC","brand":"ASTON_MARTIN","mileage":6000},{"color":"WHITE","year":"Y2023","vehicleTypes":"MINIVAN","maxLoad":1800,"isReserved":false,"maxSpeed":"200","fuelTankCapacity":70,"fuelConsumption":10,"pricePerDay":"P300","numberOfSeats":7,"fuelType":"PETROL","engine":3.6,"model":"CHRYSLER_PACIFICA","vin":"2C4RC1BG4MR123456","id":"46","gearBox":"AUTOMATIC","brand":"CHRYSLER","mileage":8500},{"color":"BLACK","year":"Y2023","vehicleTypes":"SEDAN","maxLoad":1400,"isReserved":false,"maxSpeed":"230","fuelTankCapacity":60,"fuelConsumption":7.5,"pricePerDay":"P250","numberOfSeats":5,"fuelType":"PETROL","engine":2,"model":"KIA_OPTIMA","vin":"5XXGT4L37MG123456","id":"47","gearBox":"AUTOMATIC","brand":"KIA","mileage":7500},{"color":"GRAY","year":"Y2023","vehicleTypes":"SUV","maxLoad":1600,"isReserved":false,"maxSpeed":"220","fuelTankCapacity":65,"fuelConsumption":8.5,"pricePerDay":"P300","numberOfSeats":5,"fuelType":"PETROL","engine":2.4,"model":"HYUNDAI_ELANTRA","vin":"5XYZRDLA2LG123456","id":"48","gearBox":"AUTOMATIC","brand":"HYUNDAI","mileage":8800},{"color":"RED","year":"Y2022","vehicleTypes":"HATCHBACK","maxLoad":1200,"isReserved":false,"maxSpeed":"210","fuelTankCapacity":50,"fuelConsumption":6.5,"pricePerDay":"P200","numberOfSeats":5,"fuelType":"PETROL","engine":1.6,"model":"PEUGEOT_308","vin":"VF34G9HZ0HZ123456","id":"49","gearBox":"AUTOMATIC","brand":"PEUGEOT","mileage":6800},{"color":"YELLOW","year":"Y2023","vehicleTypes":"MOTORCYCLE","maxLoad":200,"isReserved":false,"maxSpeed":"280","fuelTankCapacity":20,"fuelConsumption":5,"pricePerDay":"P150","numberOfSeats":2,"fuelType":"PETROL","engine":1.2,"model":"DUCATI_MULTISTRADA","vin":"ZDMFVBBP6KB123456","id":"50","gearBox":"MANUAL","brand":"DUCATI","mileage":5000},{"color":"BLACK","year":"Y2022","vehicleTypes":"SEDAN","maxLoad":1400,"isReserved":false,"maxSpeed":"250","fuelTankCapacity":60,"fuelConsumption":7,"pricePerDay":"P250","numberOfSeats":5,"fuelType":"PETROL","engine":2,"model":"BMW_3_SERIES","vin":"WBA5R1C03N9B12345","id":"51","gearBox":"AUTOMATIC","brand":"BMW","mileage":8000},{"color":"RED","year":"Y2023","vehicleTypes":"COUPE","maxLoad":1200,"isReserved":false,"maxSpeed":"340","fuelTankCapacity":80,"fuelConsumption":15,"pricePerDay":"P400","numberOfSeats":2,"fuelType":"PETROL","engine":3.9,"model":"FERRARI_F8","vin":"ZFF90BHB000123456","id":"52","gearBox":"AUTOMATIC","brand":"FERRARI","mileage":3000},{"color":"WHITE","year":"Y2023","vehicleTypes":"CAMPER","maxLoad":2500,"isReserved":false,"maxSpeed":"150","fuelTankCapacity":100,"fuelConsumption":12,"pricePerDay":"P300","numberOfSeats":4,"fuelType":"DIESEL","engine":3,"model":"WINNEBAGO_REVEL","vin":"W2A8JGEB0KN123456","id":"53","gearBox":"AUTOMATIC","brand":"WINNEBAGO","mileage":12000},{"color":"BLUE","year":"Y2023","vehicleTypes":"SEDAN","maxLoad":1300,"isReserved":false,"maxSpeed":"230","fuelTankCapacity":55,"fuelConsumption":6,"pricePerDay":"P250","numberOfSeats":5,"fuelType":"PETROL","engine":1.8,"model":"HONDA_CIVIC","vin":"19XFC2F74KE123456","id":"54","gearBox":"AUTOMATIC","brand":"HONDA","mileage":7200},{"color":"GREEN","year":"Y2023","vehicleTypes":"SUV","maxLoad":1800,"isReserved":false,"maxSpeed":"220","fuelTankCapacity":75,"fuelConsumption":9.5,"pricePerDay":"P300","numberOfSeats":7,"fuelType":"DIESEL","engine":3,"model":"LAND_ROVER_DISCOVERY","vin":"SALRR2RX7JH123456","id":"55","gearBox":"AUTOMATIC","brand":"LAND_ROVER","mileage":8500},{"color":"GRAY","year":"Y2022","vehicleTypes":"HATCHBACK","maxLoad":1000,"isReserved":false,"maxSpeed":"200","fuelTankCapacity":45,"fuelConsumption":5.5,"pricePerDay":"P200","numberOfSeats":5,"fuelType":"PETROL","engine":1,"model":"VOLKSWAGEN_POLO","vin":"WVWZZZAWZKP123456","id":"56","gearBox":"MANUAL","brand":"VOLKSWAGEN","mileage":6000},{"color":"ORANGE","year":"Y2023","vehicleTypes":"SEDAN","maxLoad":1300,"isReserved":false,"maxSpeed":"240","fuelTankCapacity":60,"fuelConsumption":7.2,"pricePerDay":"P250","numberOfSeats":5,"fuelType":"PETROL","engine":2.5,"model":"TOYOTA_CAMRY","vin":"4T1C11AK0NU123456","id":"57","gearBox":"AUTOMATIC","brand":"TOYOTA","mileage":7800},{"color":"BLUE","year":"Y2022","vehicleTypes":"COUPE","maxLoad":1200,"isReserved":false,"maxSpeed":"320","fuelTankCapacity":80,"fuelConsumption":12,"pricePerDay":"P400","numberOfSeats":2,"fuelType":"PETROL","engine":5.2,"model":"ASTON_MARTIN_DB11","vin":"SCFSMGAW2LGN12345","id":"58","gearBox":"AUTOMATIC","brand":"ASTON_MARTIN","mileage":6000},{"color":"WHITE","year":"Y2023","vehicleTypes":"SEDAN","maxLoad":1400,"isReserved":false,"maxSpeed":"250","fuelTankCapacity":70,"fuelConsumption":9,"pricePerDay":"P350","numberOfSeats":5,"fuelType":"DIESEL","engine":3,"model":"MERCEDES_BENZ_E_CLASS","vin":"WDDZF8KB3HA123456","id":"59","gearBox":"AUTOMATIC","brand":"MERCEDES_BENZ","mileage":8500},{"color":"BLACK","year":"Y2023","vehicleTypes":"MOTORCYCLE","maxLoad":300,"isReserved":false,"maxSpeed":"180","fuelTankCapacity":20,"fuelConsumption":6.5,"pricePerDay":"P50","numberOfSeats":2,"fuelType":"PETROL","engine":1.8,"model":"HARLEY_DAVIDSON_SOFTAIL","vin":"1HD1BHY1XYB123456","id":"60","gearBox":"MANUAL","brand":"HARLEY_DAVIDSON","mileage":4500},{"color":"SILVER","year":"Y2023","vehicleTypes":"SUV","maxLoad":1500,"isReserved":false,"maxSpeed":"250","fuelTankCapacity":100,"fuelConsumption":0,"pricePerDay":"P350","numberOfSeats":7,"fuelType":"ELECTRIC","engine":0,"model":"TESLA_MODEL_X","vin":"5YJXCDE23LF123456","id":"61","gearBox":"AUTOMATIC","brand":"TESLA","mileage":3000},{"color":"RED","year":"Y2023","vehicleTypes":"SEDAN","maxLoad":1100,"isReserved":false,"maxSpeed":"220","fuelTankCapacity":50,"fuelConsumption":6,"pricePerDay":"P200","numberOfSeats":5,"fuelType":"PETROL","engine":1.6,"model":"FORD_FIESTA","vin":"3FADP4BJ1KM123456","id":"62","gearBox":"AUTOMATIC","brand":"FORD","mileage":7000},{"color":"WHITE","year":"Y2022","vehicleTypes":"COUPE","maxLoad":1200,"isReserved":false,"maxSpeed":"270","fuelTankCapacity":55,"fuelConsumption":7.5,"pricePerDay":"P300","numberOfSeats":4,"fuelType":"PETROL","engine":2,"model":"BMW_4_SERIES","vin":"WBA4U1C03MCF12345","id":"63","gearBox":"AUTOMATIC","brand":"BMW","mileage":6500},{"color":"BLACK","year":"Y2022","vehicleTypes":"SEDAN","maxLoad":1200,"isReserved":false,"maxSpeed":"240","fuelTankCapacity":65,"fuelConsumption":8,"pricePerDay":"P250","numberOfSeats":5,"fuelType":"PETROL","engine":3.5,"model":"NISSAN_MAXIMA","vin":"1N4AA6AV1LC123456","id":"64","gearBox":"AUTOMATIC","brand":"NISSAN","mileage":6800},{"color":"BLUE","year":"Y2022","vehicleTypes":"HATCHBACK","maxLoad":1100,"isReserved":false,"maxSpeed":"210","fuelTankCapacity":45,"fuelConsumption":5.5,"pricePerDay":"P100","numberOfSeats":5,"fuelType":"PETROL","engine":1.2,"model":"RENAULT_CLIO","vin":"VF1RFE000K6781234","id":"65","gearBox":"AUTOMATIC","brand":"RENAULT","mileage":6000},{"color":"GRAY","year":"Y2023","vehicleTypes":"SUV","maxLoad":1700,"isReserved":false,"maxSpeed":"230","fuelTankCapacity":70,"fuelConsumption":9,"pricePerDay":"P300","numberOfSeats":5,"fuelType":"PETROL","engine":3.6,"model":"JEEP_GRAND_CHEROKEE","vin":"1C4RJFBG8MC123456","id":"66","gearBox":"AUTOMATIC","brand":"JEEP","mileage":7800},{"color":"GRAY","year":"Y2023","vehicleTypes":"SEDAN","maxLoad":1300,"isReserved":false,"maxSpeed":"240","fuelTankCapacity":60,"fuelConsumption":7,"pricePerDay":"P250","numberOfSeats":5,"fuelType":"PETROL","engine":2,"model":"HONDA_ACCORD","vin":"1HGCV1F3XJA123456","id":"67","gearBox":"AUTOMATIC","brand":"HONDA","mileage":7200},{"color":"BLACK","year":"Y2023","vehicleTypes":"COUPE","maxLoad":1100,"isReserved":false,"maxSpeed":"260","fuelTankCapacity":55,"fuelConsumption":7.5,"pricePerDay":"P300","numberOfSeats":4,"fuelType":"PETROL","engine":2,"model":"AUDI_A5","vin":"WAUGNBF56MA123456","id":"68","gearBox":"AUTOMATIC","brand":"AUDI","mileage":6800},{"color":"WHITE","year":"Y2023","vehicleTypes":"SUV","maxLoad":3000,"isReserved":false,"maxSpeed":"160","fuelTankCapacity":110,"fuelConsumption":11,"pricePerDay":"P350","numberOfSeats":6,"fuelType":"DIESEL","engine":3,"model":"MERCEDES_BENZ_E_CLASS","vin":"W1XV0FEY8NT123456","id":"69","gearBox":"AUTOMATIC","brand":"MERCEDES_BENZ","mileage":10000},{"color":"RED","year":"Y2022","vehicleTypes":"HATCHBACK","maxLoad":900,"isReserved":false,"maxSpeed":"190","fuelTankCapacity":35,"fuelConsumption":5,"pricePerDay":"P50","numberOfSeats":4,"fuelType":"PETROL","engine":1.2,"model":"FIAT_500","vin":"3C3CFFKH5HT123456","id":"70","gearBox":"AUTOMATIC","brand":"FIAT","mileage":5000},{"color":"BLUE","year":"Y2023","vehicleTypes":"SUV","maxLoad":1600,"isReserved":false,"maxSpeed":"230","fuelTankCapacity":65,"fuelConsumption":8.5,"pricePerDay":"P300","numberOfSeats":5,"fuelType":"DIESEL","engine":2,"model":"VOLVO_V90","vin":"YV4A22RC6M1191234","id":"71","gearBox":"AUTOMATIC","brand":"VOLVO","mileage":7800},{"color":"GRAY","year":"Y2023","vehicleTypes":"SEDAN","maxLoad":1200,"isReserved":false,"maxSpeed":"240","fuelTankCapacity":60,"fuelConsumption":7.5,"pricePerDay":"P250","numberOfSeats":5,"fuelType":"PETROL","engine":2,"model":"RENAULT_SCENIC","vin":"JTHBJ46G3K3001234","id":"72","gearBox":"AUTOMATIC","brand":"RENAULT","mileage":7200},{"color":"RED","year":"Y2022","vehicleTypes":"COUPE","maxLoad":1100,"isReserved":false,"maxSpeed":"330","fuelTankCapacity":70,"fuelConsumption":10,"pricePerDay":"P400","numberOfSeats":2,"fuelType":"PETROL","engine":3,"model":"PORSCHE_911","vin":"WP0AB2A94HS123456","id":"73","gearBox":"AUTOMATIC","brand":"PORSCHE","mileage":6500},{"color":"GRAY","year":"Y2023","vehicleTypes":"MOTORCYCLE","maxLoad":250,"isReserved":false,"maxSpeed":"220","fuelTankCapacity":18,"fuelConsumption":4.5,"pricePerDay":"P200","numberOfSeats":2,"fuelType":"PETROL","engine":1.2,"model":"KAWASAKI_VERSYS","vin":"WB10J2305DZ123456","id":"74","gearBox":"MANUAL","brand":"KAWASAKI","mileage":4000},{"color":"WHITE","year":"Y2023","vehicleTypes":"SEDAN","maxLoad":1300,"isReserved":false,"maxSpeed":"230","fuelTankCapacity":60,"fuelConsumption":7.5,"pricePerDay":"P250","numberOfSeats":5,"fuelType":"PETROL","engine":2.5,"model":"MAZDA6","vin":"JM1GL1UM3L1361234","id":"75","gearBox":"AUTOMATIC","brand":"MAZDA","mileage":7000},{"color":"GREEN","year":"Y2023","vehicleTypes":"SUV","maxLoad":1500,"isReserved":false,"maxSpeed":"220","fuelTankCapacity":65,"fuelConsumption":8,"pricePerDay":"P300","numberOfSeats":5,"fuelType":"PETROL","engine":2.5,"model":"SUBARU_OUTBACK","vin":"4S4BTACC8N3H12345","id":"76","gearBox":"AUTOMATIC","brand":"SUBARU","mileage":7500},{"color":"BLUE","year":"Y2022","vehicleTypes":"HATCHBACK","maxLoad":1100,"isReserved":false,"maxSpeed":"210","fuelTankCapacity":45,"fuelConsumption":5.5,"pricePerDay":"P200","numberOfSeats":5,"fuelType":"PETROL","engine":1.4,"model":"FERRARI_ROMA","vin":"KMHC75LCXLU123456","id":"77","gearBox":"AUTOMATIC","brand":"FERRARI","mileage":6000},{"color":"RED","year":"Y2023","vehicleTypes":"SEDAN","maxLoad":1200,"isReserved":false,"maxSpeed":"220","fuelTankCapacity":50,"fuelConsumption":6,"pricePerDay":"P200","numberOfSeats":5,"fuelType":"PETROL","engine":1.8,"model":"TOYOTA_COROLLA","vin":"JTDEPRAE7LJ123456","id":"78","gearBox":"AUTOMATIC","brand":"TOYOTA","mileage":6800},{"color":"BLACK","year":"Y2023","vehicleTypes":"COUPE","maxLoad":1100,"isReserved":false,"maxSpeed":"250","fuelTankCapacity":55,"fuelConsumption":7,"pricePerDay":"P250","numberOfSeats":4,"fuelType":"PETROL","engine":2,"model":"BMW_2_SERIES","vin":"WBA12J1000V123456","id":"79","gearBox":"AUTOMATIC","brand":"BMW","mileage":7200},{"color":"WHITE","year":"Y2023","vehicleTypes":"CAMPER","maxLoad":2800,"isReserved":false,"maxSpeed":"170","fuelTankCapacity":80,"fuelConsumption":10,"pricePerDay":"P350","numberOfSeats":4,"fuelType":"DIESEL","engine":2,"model":"WINNEBAGO_MINNIE","vin":"WV2ZZZ70ZPH123456","id":"80","gearBox":"AUTOMATIC","brand":"WINNEBAGO","mileage":8500},{"color":"BLUE","year":"Y2022","vehicleTypes":"HATCHBACK","maxLoad":1000,"isReserved":false,"maxSpeed":"200","fuelTankCapacity":45,"fuelConsumption":5,"pricePerDay":"P200","numberOfSeats":5,"fuelType":"PETROL","engine":1.4,"model":"KIA_RIO","vin":"KNADN512756123456","id":"81","gearBox":"AUTOMATIC","brand":"KIA","mileage":6000},{"color":"GRAY","year":"Y2023","vehicleTypes":"SUV","maxLoad":1600,"isReserved":false,"maxSpeed":"230","fuelTankCapacity":65,"fuelConsumption":8.5,"pricePerDay":"P300","numberOfSeats":7,"fuelType":"PETROL","engine":2.3,"model":"FORD_EDGE","vin":"1FM5K8HC4MGA12345","id":"82","gearBox":"AUTOMATIC","brand":"FORD","mileage":7800},{"color":"BLACK","year":"Y2023","vehicleTypes":"SEDAN","maxLoad":1200,"isReserved":false,"maxSpeed":"240","fuelTankCapacity":55,"fuelConsumption":7,"pricePerDay":"P200","numberOfSeats":5,"fuelType":"PETROL","engine":2,"model":"MERCEDES_BENZ_C_CLASS","vin":"W1KWF8DB8LR123456","id":"83","gearBox":"AUTOMATIC","brand":"MERCEDES_BENZ","mileage":7200},{"color":"RED","year":"Y2022","vehicleTypes":"COUPE","maxLoad":1000,"isReserved":false,"maxSpeed":"270","fuelTankCapacity":50,"fuelConsumption":7.5,"pricePerDay":"P350","numberOfSeats":2,"fuelType":"PETROL","engine":2,"model":"AUDI_TT","vin":"TRUZZZFV6L1901234","id":"84","gearBox":"AUTOMATIC","brand":"AUDI","mileage":6500},{"color":"BLACK","year":"Y2023","vehicleTypes":"MOTORCYCLE","maxLoad":300,"isReserved":false,"maxSpeed":"200","fuelTankCapacity":20,"fuelConsumption":6,"pricePerDay":"P150","numberOfSeats":2,"fuelType":"PETROL","engine":1.8,"model":"HARLEY_DAVIDSON_TOURING","vin":"1HD1KBC10DB123456","id":"85","gearBox":"MANUAL","brand":"HARLEY_DAVIDSON","mileage":4500},{"color":"BLUE","year":"Y2023","vehicleTypes":"SUV","maxLoad":1600,"isReserved":false,"maxSpeed":"250","fuelTankCapacity":100,"fuelConsumption":0,"pricePerDay":"P350","numberOfSeats":7,"fuelType":"ELECTRIC","engine":0,"model":"TESLA_MODEL_Y","vin":"5YJYGDEE1MF123456","id":"86","gearBox":"AUTOMATIC","brand":"TESLA","mileage":3000},{"color":"GRAY","year":"Y2022","vehicleTypes":"SEDAN","maxLoad":1200,"isReserved":false,"maxSpeed":"230","fuelTankCapacity":60,"fuelConsumption":7.5,"pricePerDay":"P250","numberOfSeats":5,"fuelType":"PETROL","engine":2.5,"model":"NISSAN_ALTIMA","vin":"1N4BL4BV7CN123456","id":"87","gearBox":"AUTOMATIC","brand":"NISSAN","mileage":6800},{"color":"WHITE","year":"Y2022","vehicleTypes":"HATCHBACK","maxLoad":1100,"isReserved":false,"maxSpeed":"210","fuelTankCapacity":50,"fuelConsumption":6,"pricePerDay":"P200","numberOfSeats":5,"fuelType":"PETROL","engine":1.6,"model":"RENAULT_MEGANE","vin":"VF1RFB0036W123456","id":"88","gearBox":"AUTOMATIC","brand":"RENAULT","mileage":7000},{"color":"BLACK","year":"Y2023","vehicleTypes":"SUV","maxLoad":1400,"isReserved":false,"maxSpeed":"220","fuelTankCapacity":60,"fuelConsumption":8,"pricePerDay":"P300","numberOfSeats":5,"fuelType":"PETROL","engine":2,"model":"BMW_I8","vin":"1C4HJXEG8MW123456","id":"89","gearBox":"AUTOMATIC","brand":"BMW","mileage":7500},{"color":"RED","year":"Y2022","vehicleTypes":"SEDAN","maxLoad":1000,"isReserved":false,"maxSpeed":"200","fuelTankCapacity":45,"fuelConsumption":5.5,"pricePerDay":"P150","numberOfSeats":5,"fuelType":"PETROL","engine":1.2,"model":"HYUNDAI_GENESIS","vin":"MALBB51CLCM123456","id":"90","gearBox":"AUTOMATIC","brand":"HYUNDAI","mileage":6000},{"color":"BLUE","year":"Y2023","vehicleTypes":"COUPE","maxLoad":1100,"isReserved":false,"maxSpeed":"250","fuelTankCapacity":55,"fuelConsumption":7,"pricePerDay":"P300","numberOfSeats":4,"fuelType":"PETROL","engine":2,"model":"MERCEDES_BENZ_E_CLASS","vin":"WDDHF8JB4NB123456","id":"91","gearBox":"AUTOMATIC","brand":"MERCEDES_BENZ","mileage":7200},{"color":"WHITE","year":"Y2023","vehicleTypes":"CAMPER","maxLoad":3000,"isReserved":false,"maxSpeed":"170","fuelTankCapacity":90,"fuelConsumption":12,"pricePerDay":"P400","numberOfSeats":4,"fuelType":"DIESEL","engine":2.5,"model":"WINNEBAGO_MICRO_MINNIE","vin":"WV2ZZZ7HZLH123456","id":"92","gearBox":"AUTOMATIC","brand":"WINNEBAGO","mileage":9000},{"color":"RED","year":"Y2022","vehicleTypes":"HATCHBACK","maxLoad":900,"isReserved":false,"maxSpeed":"200","fuelTankCapacity":40,"fuelConsumption":5,"pricePerDay":"P200","numberOfSeats":5,"fuelType":"PETROL","engine":1.5,"model":"TOYOTA_YARIS","vin":"VNKJZ3D370A123456","id":"93","gearBox":"AUTOMATIC","brand":"TOYOTA","mileage":5500},{"color":"GRAY","year":"Y2023","vehicleTypes":"SUV","maxLoad":1700,"isReserved":false,"maxSpeed":"240","fuelTankCapacity":75,"fuelConsumption":9,"pricePerDay":"P350","numberOfSeats":5,"fuelType":"PETROL","engine":3,"model":"BMW_X5","vin":"5UXJU2C53M9G12345","id":"94","gearBox":"AUTOMATIC","brand":"BMW","mileage":8000},{"color":"BLACK","year":"Y2023","vehicleTypes":"SEDAN","maxLoad":1200,"isReserved":false,"maxSpeed":"230","fuelTankCapacity":60,"fuelConsumption":7,"pricePerDay":"P250","numberOfSeats":5,"fuelType":"PETROL","engine":2.5,"model":"TOYOTA_PRIUS","vin":"58ABK1GG7MU123456","id":"95","gearBox":"AUTOMATIC","brand":"TOYOTA","mileage":7200},{"color":"BLACK","year":"Y2023","vehicleTypes":"COUPE","maxLoad":1100,"isReserved":false,"maxSpeed":"260","fuelTankCapacity":55,"fuelConsumption":7.5,"pricePerDay":"P200","numberOfSeats":4,"fuelType":"PETROL","engine":2,"model":"AUDI_A4","vin":"WAUB8AF40LN123456","id":"96","gearBox":"AUTOMATIC","brand":"AUDI","mileage":6800},{"color":"BLUE","year":"Y2023","vehicleTypes":"MOTORCYCLE","maxLoad":250,"isReserved":false,"maxSpeed":"230","fuelTankCapacity":15,"fuelConsumption":4,"pricePerDay":"P100","numberOfSeats":2,"fuelType":"PETROL","engine":0.9,"model":"YAMAHA_MT","vin":"JYARN53E3NA123456","id":"97","gearBox":"MANUAL","brand":"YAMAHA","mileage":3500},{"color":"RED","year":"Y2023","vehicleTypes":"SEDAN","maxLoad":1100,"isReserved":false,"maxSpeed":"220","fuelTankCapacity":50,"fuelConsumption":6,"pricePerDay":"P200","numberOfSeats":5,"fuelType":"PETROL","engine":1.5,"model":"MAZDA3","vin":"JM1BPAMM1N2001234","id":"98","gearBox":"AUTOMATIC","brand":"MAZDA","mileage":6800},{"color":"WHITE","year":"Y2022","vehicleTypes":"HATCHBACK","maxLoad":900,"isReserved":false,"maxSpeed":"200","fuelTankCapacity":40,"fuelConsumption":5.5,"pricePerDay":"P150","numberOfSeats":5,"fuelType":"PETROL","engine":1,"model":"FORD_FIESTA","vin":"3FADP4BJ5NM123456","id":"99","gearBox":"AUTOMATIC","brand":"FORD","mileage":6000},{"color":"GREEN","year":"Y2023","vehicleTypes":"SUV","maxLoad":1500,"isReserved":false,"maxSpeed":"220","fuelTankCapacity":65,"fuelConsumption":8,"pricePerDay":"P300","numberOfSeats":5,"fuelType":"PETROL","engine":2.5,"model":"SUBARU_FORESTER","vin":"JF2SKARC8LH123456","id":"100","gearBox":"AUTOMATIC","brand":"SUBARU","mileage":7800},{"color":"YELLOW","year":"Y2022","vehicleTypes":"MOTORCYCLE","maxLoad":250,"isReserved":true,"maxSpeed":"300","fuelTankCapacity":18,"fuelConsumption":6.5,"pricePerDay":"P250","numberOfSeats":2,"fuelType":"PETROL","engine":1.1,"model":"DUCATI_PANIGALE","vin":"ZDM14BYW9CB123456","id":"10","gearBox":"MANUAL","brand":"DUCATI","mileage":3000}]